STARLINK-36169          
1 66929U 25286E   25365.15974330  .00094803  00000+0  16895-2 0  9992
2 66929  53.1598 319.6680 0001321  85.5375 274.5785 15.49350559  4882
STARLINK-36206          
1 66930U 25286F   25365.28841536  .00091378  00000+0  16298-2 0  9990
2 66930  53.1599 319.0491 0001444 109.6871 250.4294 15.49345838  4909
STARLINK-36130          
1 66931U 25286G   25365.58335648 -.00516347  00000+0 -13654-1 0  9998
2 66931  53.1601 317.6978 0001410  68.6666 107.6046 15.39927945  5012
STARLINK-36177          
1 66932U 25286H   25365.28772909  .00105162  00000+0  18706-2 0  9992
2 66932  53.1599 319.0441 0001257  77.6219 282.4930 15.49353498  4901
STARLINK-36157          
1 66933U 25286J   25365.15837139  .00155766  00000+0  27474-2 0  9993
2 66933  53.1594 319.6587 0001332  73.7133 286.4022 15.49369258  4884
STARLINK-36153          
1 66934U 25286K   25365.48103200 -.00859072  00000+0 -18225-1 0  9991
2 66934  53.1600 318.1169 0001088  48.9040 311.2062 15.47227510  4931
STARLINK-36127          
1 66935U 25286L   25365.58335648  .00067739  00000+0  16929-2 0  9995
2 66935  53.1599 317.7470 0001621  92.4796  58.2993 15.39539988  5011
STARLINK-36160          
1 66936U 25286M   25365.28635645  .00112048  00000+0  19909-2 0  9998
2 66936  53.1598 319.0361 0001654  68.4480 291.6705 15.49351647  4898
STARLINK-36165          
1 66937U 25286N   25365.28601266  .00092259  00000+0  16448-2 0  9997
2 66937  53.1601 319.0339 0001423  54.3293 305.7848 15.49352775  4909
STARLINK-36155          
1 66938U 25286P   25365.15663329  .00097394  00000+0  17316-2 0  9992
2 66938  53.1600 319.6472 0000957  40.1143 319.9936 15.49405840  4885
STARLINK-36154          
1 66939U 25286Q   25365.58335648  .00032112  00000+0  81055-3 0  9999
2 66939  53.1597 317.6987 0001024  98.3288  76.2299 15.39576784  5017
STARLINK-36121          
1 66940U 25286R   25365.58335648 -.01830443  00000+0 -48684-1 0  9996
2 66940  53.1602 317.6484 0001661  89.3838 110.2024 15.40928127  5015
