CCSDS_OMM_VERS = 2.0
CREATION_DATE  = 
ORIGINATOR     = 

OBJECT_NAME    = STARLINK-36169
OBJECT_ID      = 2025-286E
CENTER_NAME    = EARTH
REF_FRAME      = TEME
TIME_SYSTEM    = UTC
MEAN_ELEMENT_THEORY = SGP/SGP4

EPOCH          = 2025-12-31T03:50:01.821120
MEAN_MOTION    = 15.49350559
ECCENTRICITY   = .0001321
INCLINATION    = 53.1598
RA_OF_ASC_NODE = 319.6680
ARG_OF_PERICENTER = 85.5375
MEAN_ANOMALY   = 274.5785

EPHEMERIS_TYPE = 0
CLASSIFICATION_TYPE = U
NORAD_CAT_ID   = 66929
ELEMENT_SET_NO = 999
REV_AT_EPOCH   = 488
BSTAR          = .16895E-2
MEAN_MOTION_DOT = .94803E-3
MEAN_MOTION_DDOT = 0

CCSDS_OMM_VERS = 2.0
CREATION_DATE  = 
ORIGINATOR     = 

OBJECT_NAME    = STARLINK-36206
OBJECT_ID      = 2025-286F
CENTER_NAME    = EARTH
REF_FRAME      = TEME
TIME_SYSTEM    = UTC
MEAN_ELEMENT_THEORY = SGP/SGP4

EPOCH          = 2025-12-31T06:55:19.087104
MEAN_MOTION    = 15.49345838
ECCENTRICITY   = .0001444
INCLINATION    = 53.1599
RA_OF_ASC_NODE = 319.0491
ARG_OF_PERICENTER = 109.6871
MEAN_ANOMALY   = 250.4294

EPHEMERIS_TYPE = 0
CLASSIFICATION_TYPE = U
NORAD_CAT_ID   = 66930
ELEMENT_SET_NO = 999
REV_AT_EPOCH   = 490
BSTAR          = .16298E-2
MEAN_MOTION_DOT = .91378E-3
MEAN_MOTION_DDOT = 0

CCSDS_OMM_VERS = 2.0
CREATION_DATE  = 
ORIGINATOR     = 

OBJECT_NAME    = STARLINK-36130
OBJECT_ID      = 2025-286G
CENTER_NAME    = EARTH
REF_FRAME      = TEME
TIME_SYSTEM    = UTC
MEAN_ELEMENT_THEORY = SGP/SGP4

EPOCH          = 2025-12-31T14:00:01.999872
MEAN_MOTION    = 15.39927945
ECCENTRICITY   = .00014104
INCLINATION    = 53.1601
RA_OF_ASC_NODE = 317.6978
ARG_OF_PERICENTER = 68.6666
MEAN_ANOMALY   = 107.6046

EPHEMERIS_TYPE = 0
CLASSIFICATION_TYPE = U
NORAD_CAT_ID   = 66931
ELEMENT_SET_NO = 999
REV_AT_EPOCH   = 501
BSTAR          = -.13653872E-1
MEAN_MOTION_DOT = -.516347E-2
MEAN_MOTION_DDOT = 0

CCSDS_OMM_VERS = 2.0
CREATION_DATE  = 
ORIGINATOR     = 

OBJECT_NAME    = STARLINK-36177
OBJECT_ID      = 2025-286H
CENTER_NAME    = EARTH
REF_FRAME      = TEME
TIME_SYSTEM    = UTC
MEAN_ELEMENT_THEORY = SGP/SGP4

EPOCH          = 2025-12-31T06:54:19.793376
MEAN_MOTION    = 15.49353498
ECCENTRICITY   = .0001257
INCLINATION    = 53.1599
RA_OF_ASC_NODE = 319.0441
ARG_OF_PERICENTER = 77.6219
MEAN_ANOMALY   = 282.4930

EPHEMERIS_TYPE = 0
CLASSIFICATION_TYPE = U
NORAD_CAT_ID   = 66932
ELEMENT_SET_NO = 999
REV_AT_EPOCH   = 490
BSTAR          = .18706E-2
MEAN_MOTION_DOT = .105162E-2
MEAN_MOTION_DDOT = 0

CCSDS_OMM_VERS = 2.0
CREATION_DATE  = 
ORIGINATOR     = 

OBJECT_NAME    = STARLINK-36157
OBJECT_ID      = 2025-286J
CENTER_NAME    = EARTH
REF_FRAME      = TEME
TIME_SYSTEM    = UTC
MEAN_ELEMENT_THEORY = SGP/SGP4

EPOCH          = 2025-12-31T03:48:03.288096
MEAN_MOTION    = 15.49369258
ECCENTRICITY   = .0001332
INCLINATION    = 53.1594
RA_OF_ASC_NODE = 319.6587
ARG_OF_PERICENTER = 73.7133
MEAN_ANOMALY   = 286.4022

EPHEMERIS_TYPE = 0
CLASSIFICATION_TYPE = U
NORAD_CAT_ID   = 66933
ELEMENT_SET_NO = 999
REV_AT_EPOCH   = 488
BSTAR          = .27474E-2
MEAN_MOTION_DOT = .155766E-2
MEAN_MOTION_DDOT = 0

CCSDS_OMM_VERS = 2.0
CREATION_DATE  = 
ORIGINATOR     = 

OBJECT_NAME    = STARLINK-36153
OBJECT_ID      = 2025-286K
CENTER_NAME    = EARTH
REF_FRAME      = TEME
TIME_SYSTEM    = UTC
MEAN_ELEMENT_THEORY = SGP/SGP4

EPOCH          = 2025-12-31T11:32:41.164800
MEAN_MOTION    = 15.47227510
ECCENTRICITY   = .00010882
INCLINATION    = 53.1600
RA_OF_ASC_NODE = 318.1169
ARG_OF_PERICENTER = 48.9040
MEAN_ANOMALY   = 311.2062

EPHEMERIS_TYPE = 0
CLASSIFICATION_TYPE = U
NORAD_CAT_ID   = 66934
ELEMENT_SET_NO = 999
REV_AT_EPOCH   = 493
BSTAR          = -.18225057E-1
MEAN_MOTION_DOT = -.859072E-2
MEAN_MOTION_DDOT = 0

CCSDS_OMM_VERS = 2.0
CREATION_DATE  = 
ORIGINATOR     = 

OBJECT_NAME    = STARLINK-36127
OBJECT_ID      = 2025-286L
CENTER_NAME    = EARTH
REF_FRAME      = TEME
TIME_SYSTEM    = UTC
MEAN_ELEMENT_THEORY = SGP/SGP4

EPOCH          = 2025-12-31T14:00:01.999872
MEAN_MOTION    = 15.39539988
ECCENTRICITY   = .00016212
INCLINATION    = 53.1599
RA_OF_ASC_NODE = 317.7470
ARG_OF_PERICENTER = 92.4796
MEAN_ANOMALY   = 58.2993

EPHEMERIS_TYPE = 0
CLASSIFICATION_TYPE = U
NORAD_CAT_ID   = 66935
ELEMENT_SET_NO = 999
REV_AT_EPOCH   = 501
BSTAR          = .16928588E-2
MEAN_MOTION_DOT = .67739E-3
MEAN_MOTION_DDOT = 0

CCSDS_OMM_VERS = 2.0
CREATION_DATE  = 
ORIGINATOR     = 

OBJECT_NAME    = STARLINK-36160
OBJECT_ID      = 2025-286M
CENTER_NAME    = EARTH
REF_FRAME      = TEME
TIME_SYSTEM    = UTC
MEAN_ELEMENT_THEORY = SGP/SGP4

EPOCH          = 2025-12-31T06:52:21.197280
MEAN_MOTION    = 15.49351647
ECCENTRICITY   = .0001654
INCLINATION    = 53.1598
RA_OF_ASC_NODE = 319.0361
ARG_OF_PERICENTER = 68.4480
MEAN_ANOMALY   = 291.6705

EPHEMERIS_TYPE = 0
CLASSIFICATION_TYPE = U
NORAD_CAT_ID   = 66936
ELEMENT_SET_NO = 999
REV_AT_EPOCH   = 489
BSTAR          = .19909E-2
MEAN_MOTION_DOT = .112048E-2
MEAN_MOTION_DDOT = 0

CCSDS_OMM_VERS = 2.0
CREATION_DATE  = 
ORIGINATOR     = 

OBJECT_NAME    = STARLINK-36165
OBJECT_ID      = 2025-286N
CENTER_NAME    = EARTH
REF_FRAME      = TEME
TIME_SYSTEM    = UTC
MEAN_ELEMENT_THEORY = SGP/SGP4

EPOCH          = 2025-12-31T06:51:51.493824
MEAN_MOTION    = 15.49352775
ECCENTRICITY   = .0001423
INCLINATION    = 53.1601
RA_OF_ASC_NODE = 319.0339
ARG_OF_PERICENTER = 54.3293
MEAN_ANOMALY   = 305.7848

EPHEMERIS_TYPE = 0
CLASSIFICATION_TYPE = U
NORAD_CAT_ID   = 66937
ELEMENT_SET_NO = 999
REV_AT_EPOCH   = 490
BSTAR          = .16448E-2
MEAN_MOTION_DOT = .92259E-3
MEAN_MOTION_DDOT = 0

CCSDS_OMM_VERS = 2.0
CREATION_DATE  = 
ORIGINATOR     = 

OBJECT_NAME    = STARLINK-36155
OBJECT_ID      = 2025-286P
CENTER_NAME    = EARTH
REF_FRAME      = TEME
TIME_SYSTEM    = UTC
MEAN_ELEMENT_THEORY = SGP/SGP4

EPOCH          = 2025-12-31T03:45:33.116256
MEAN_MOTION    = 15.49405840
ECCENTRICITY   = .0000957
INCLINATION    = 53.1600
RA_OF_ASC_NODE = 319.6472
ARG_OF_PERICENTER = 40.1143
MEAN_ANOMALY   = 319.9936

EPHEMERIS_TYPE = 0
CLASSIFICATION_TYPE = U
NORAD_CAT_ID   = 66938
ELEMENT_SET_NO = 999
REV_AT_EPOCH   = 488
BSTAR          = .17316E-2
MEAN_MOTION_DOT = .97394E-3
MEAN_MOTION_DDOT = 0

CCSDS_OMM_VERS = 2.0
CREATION_DATE  = 
ORIGINATOR     = 

OBJECT_NAME    = STARLINK-36154
OBJECT_ID      = 2025-286Q
CENTER_NAME    = EARTH
REF_FRAME      = TEME
TIME_SYSTEM    = UTC
MEAN_ELEMENT_THEORY = SGP/SGP4

EPOCH          = 2025-12-31T14:00:01.999872
MEAN_MOTION    = 15.39576784
ECCENTRICITY   = .00010243
INCLINATION    = 53.1597
RA_OF_ASC_NODE = 317.6987
ARG_OF_PERICENTER = 98.3288
MEAN_ANOMALY   = 76.2299

EPHEMERIS_TYPE = 0
CLASSIFICATION_TYPE = U
NORAD_CAT_ID   = 66939
ELEMENT_SET_NO = 999
REV_AT_EPOCH   = 501
BSTAR          = .81055118E-3
MEAN_MOTION_DOT = .32112E-3
MEAN_MOTION_DDOT = 0

CCSDS_OMM_VERS = 2.0
CREATION_DATE  = 
ORIGINATOR     = 

OBJECT_NAME    = STARLINK-36121
OBJECT_ID      = 2025-286R
CENTER_NAME    = EARTH
REF_FRAME      = TEME
TIME_SYSTEM    = UTC
MEAN_ELEMENT_THEORY = SGP/SGP4

EPOCH          = 2025-12-31T14:00:01.999872
MEAN_MOTION    = 15.40928127
ECCENTRICITY   = .00016617
INCLINATION    = 53.1602
RA_OF_ASC_NODE = 317.6484
ARG_OF_PERICENTER = 89.3838
MEAN_ANOMALY   = 110.2024

EPHEMERIS_TYPE = 0
CLASSIFICATION_TYPE = U
NORAD_CAT_ID   = 66940
ELEMENT_SET_NO = 999
REV_AT_EPOCH   = 501
BSTAR          = -.48684302E-1
MEAN_MOTION_DOT = -.1830443E-1
MEAN_MOTION_DDOT = 0

